FENGYUN 1C DEB          
1 30984U 99025BCA 17345.58441865  .00000425  00000-0  13813-3 0  9990
2 30984  98.5970  21.2078 0154452 151.8820   0.0793 14.37434711530743
